[{"OBJECT_NAME":"STARLINK-5916","OBJECT_ID":"2023-042C","EPOCH":"2026-03-09T07:13:47.626752","MEAN_MOTION":15.02535484,"ECCENTRICITY":0.00012199,"INCLINATION":43.004,"RA_OF_ASC_NODE":58.0864,"ARG_OF_PERICENTER":268.8318,"MEAN_ANOMALY":91.2385,"EPHEMERIS_TYPE":0,"CLASSIFICATION_TYPE":"U","NORAD_CAT_ID":55988,"ELEMENT_SET_NO":999,"REV_AT_EPOCH":16285,"BSTAR":3.2637134e-5,"MEAN_MOTION_DOT":2.37e-6,"MEAN_MOTION_DDOT":0},{"OBJECT_NAME":"PEGASUS DEB","OBJECT_ID":"1994-029YW","EPOCH":"2026-03-09T00:40:55.338528","MEAN_MOTION":14.11561087,"ECCENTRICITY":0.04478792,"INCLINATION":81.4462,"RA_OF_ASC_NODE":93.0128,"ARG_OF_PERICENTER":250.1381,"MEAN_ANOMALY":105.1008,"EPHEMERIS_TYPE":0,"CLASSIFICATION_TYPE":"U","NORAD_CAT_ID":24594,"ELEMENT_SET_NO":999,"REV_AT_EPOCH":49351,"BSTAR":0.0015343637,"MEAN_MOTION_DOT":7.284e-5,"MEAN_MOTION_DDOT":0}]
